{
  "norad_id": 60538,
  "name": "PICO-02A021",
  "history": [
    {
      "epoch": "2026-03-28T16:03:40.100832Z",
      "apogee_km": 560.9564569351105,
      "perigee_km": 557.8050201272054,
      "latitude_deg": -8.95014714106171e-06,
      "longitude_deg": 100.23817101842471,
      "height_km": 561.644180839714,
      "semi_major_axis_km": 6937.517738531157,
      "eccentricity": 0.00022713,
      "inclination_deg": 97.6793,
      "raan_deg": 167.2416,
      "arg_perigee_deg": 300.4088,
      "mean_anomaly_deg": 59.6912,
      "mean_motion_rev_day": 15.02438148
    },
    {
      "epoch": "2026-03-29T04:50:53.918016Z",
      "apogee_km": 560.9216429165417,
      "perigee_km": 557.7761868027437,
      "latitude_deg": 3.281664456943287e-05,
      "longitude_deg": -91.56675667940425,
      "height_km": 561.6894690151906,
      "semi_major_axis_km": 6937.485914859642,
      "eccentricity": 0.0002267,
      "inclination_deg": 97.6793,
      "raan_deg": 167.7694,
      "arg_perigee_deg": 297.2683,
      "mean_anomaly_deg": 62.8311,
      "mean_motion_rev_day": 15.02448486
    }
  ]
}